{
    "links": {
        "self": "http://www.neowsapp.com/rest/v1/neo/3781034?api_key=iIulBulltgU6a56xZRHN4H3l9WmuAYTsLGpBGhQ2"
    },
    "id": "3781034",
    "neo_reference_id": "3781034",
    "name": "(2017 QM17)",
    "designation": "2017 QM17",
    "nasa_jpl_url": "http://ssd.jpl.nasa.gov/sbdb.cgi?sstr=3781034",
    "absolute_magnitude_h": 21.928,
    "estimated_diameter": {
        "kilometers": {
            "estimated_diameter_min": 0.1093842961,
            "estimated_diameter_max": 0.2445907219
        },
        "meters": {
            "estimated_diameter_min": 109.3842961482,
            "estimated_diameter_max": 244.5907218583
        },
        "miles": {
            "estimated_diameter_min": 0.0679682295,
            "estimated_diameter_max": 0.1519815814
        },
        "feet": {
            "estimated_diameter_min": 358.8723741747,
            "estimated_diameter_max": 802.4630239014
        }
    },
    "is_potentially_hazardous_asteroid": false,
    "close_approach_data": [
        {
            "close_approach_date": "2017-08-21",
            "close_approach_date_full": "2017-Aug-21 02:12",
            "epoch_date_close_approach": 1503281520000,
            "relative_velocity": {
                "kilometers_per_second": "12.3123895536",
                "kilometers_per_hour": "44324.6023928254",
                "miles_per_hour": "27541.5841923642"
            },
            "miss_distance": {
                "astronomical": "0.3892083469",
                "lunar": "151.4020469441",
                "kilometers": "58224739.682461103",
                "miles": "36179175.5880171014"
            },
            "orbiting_body": "Earth"
        }
    ],
    "orbital_data": {
        "orbit_id": "1",
        "orbit_determination_date": "2017-09-03 19:06:31",
        "first_observation_date": "2017-08-23",
        "last_observation_date": "2017-08-25",
        "data_arc_in_days": 2,
        "observations_used": 21,
        "orbit_uncertainty": "9",
        "minimum_orbit_intersection": ".314131",
        "jupiter_tisserand_invariant": "4.769",
        "epoch_osculation": "2457989.5",
        "eccentricity": ".04474878550697135",
        "semi_major_axis": "1.355236255301638",
        "inclination": "24.31226733220229",
        "ascending_node_longitude": "153.1449491555207",
        "orbital_period": "576.2632761828464",
        "perihelion_distance": "1.294591078801874",
        "perihelion_argument": "37.83146325131744",
        "aphelion_distance": "1.415881431801402",
        "perihelion_time": "2457773.679141110340",
        "mean_anomaly": "134.8264107942653",
        "mean_motion": ".6247144575733352",
        "equinox": "J2000",
        "orbit_class": {
            "orbit_class_type": "AMO",
            "orbit_class_description": "Near-Earth asteroid orbits similar to that of 1221 Amor",
            "orbit_class_range": "1.017 AU < q (perihelion) < 1.3 AU"
        }
    },
    "is_sentry_object": false
}